[{"OBJECT_NAME":"JILIN-1 06","OBJECT_ID":"2017-074C","EPOCH":"2026-03-09T22:46:57.173376","MEAN_MOTION":15.32444387,"ECCENTRICITY":0.00061285,"INCLINATION":97.4715,"RA_OF_ASC_NODE":171.0354,"ARG_OF_PERICENTER":223.0031,"MEAN_ANOMALY":137.0732,"EPHEMERIS_TYPE":0,"CLASSIFICATION_TYPE":"U","NORAD_CAT_ID":43024,"ELEMENT_SET_NO":999,"REV_AT_EPOCH":45863,"BSTAR":0.00028431628,"MEAN_MOTION_DOT":8.833e-5,"MEAN_MOTION_DDOT":0},{"OBJECT_NAME":"STARLINK-32674","OBJECT_ID":"2024-251C","EPOCH":"2026-03-09T21:26:15.066816","MEAN_MOTION":15.30221561,"ECCENTRICITY":0.00012704,"INCLINATION":53.1582,"RA_OF_ASC_NODE":334.075,"ARG_OF_PERICENTER":119.0902,"MEAN_ANOMALY":241.0226,"EPHEMERIS_TYPE":0,"CLASSIFICATION_TYPE":"U","NORAD_CAT_ID":62434,"ELEMENT_SET_NO":999,"REV_AT_EPOCH":6798,"BSTAR":0.0011942047,"MEAN_MOTION_DOT":0.00035201,"MEAN_MOTION_DDOT":0}]
